ELFIN-B                 
1 43616U 18070D   21035.76652208  .00007078  00000-0  16126-3 0  9994
2 43616  93.0202 250.9103 0015850 148.7299 211.4903 15.42816513134304
ELFIN-A                 
1 43617U 18070E   21035.76099302  .00006925  00000-0  15600-3 0  9991
2 43617  93.0256 251.6284 0015316 145.4248 214.8007 15.43162292134319
CUBEBEL-1 (BSUSAT-1)    
1 43666U 18083E   21035.91373348  .00001356  00000-0  68237-4 0  9999
2 43666  97.4693  65.8870 0013005 271.1457 173.1490 15.18881117125896
CICERO 10               
1 43690U 18088A   21035.68321762  .00001384  00000-0  60789-4 0  9993
2 43690  85.0371 285.2458 0014734 169.2894 190.8664 15.20820714124045
IRVINE01                
1 43693U 18088D   21035.67926319  .00004101  00000-0  16493-3 0  9996
2 43693  85.0332 283.1341 0017752 148.5794 211.6513 15.24427069124208
PROXIMA I               
1 43694U 18088E   21035.67234017  .00001274  00000-0  52872-4 0  9994
2 43694  85.0312 283.1978 0020003 143.4340 216.8273 15.22551067124177
PROXIMA II              
1 43696U 18088G   21035.67046768  .00001277  00000-0  52985-4 0  9998
2 43696  85.0313 283.2057 0020055 143.4179 216.8438 15.22550205124161
FACSAT-1                
1 43721U 18096C   21035.89605442  .00002001  00000-0  75306-4 0  9998
2 43721  97.3988 114.0381 0017634  26.7280  62.3277 15.28181763121875
CENTAURI-2              
1 43722U 18096D   21035.93690659  .00002720  00000-0  98806-4 0  9996
2 43722  97.4001 114.6336 0017395  25.5209 334.6886 15.29036095121904
INNOSAT-2               
1 43738U 18096V   21035.88819154  .00003859  00000-0  12610-3 0  9992
2 43738  97.4036 117.6203 0022807  28.0087  83.1239 15.32108117122099
SIRION PATHFINDER-2     
1 43759U 18099B   21035.77703107 -.00000342  00000-0 -25715-4 0  9993
2 43759  97.6801 109.1621 0015623 124.0805 236.1886 14.95418396118653
CORVUS BC4              
1 43767U 18099K   21035.80492853  .00000317  00000-0  34293-4 0  9990
2 43767  97.6775 108.3403 0013216 129.1132 231.1259 14.94851073118613
MOVE-II                 
1 43780U 18099Y   21035.15783055  .00000853  00000-0  81616-4 0  9996
2 43780  97.6827 108.5945 0014658 136.2039 224.0347 14.95713820118544
SPACEBEE-7              
1 43816U 18099BL  21035.65722478  .00000313  00000-0  33043-4 0  9995
2 43816  97.6835 109.6117 0014587 120.8517 239.4141 14.95949077118207
SPACEBEE-5              
1 43817U 18099BM  21035.89387811  .00001593  00000-0  14353-3 0  9993
2 43817  97.6917 110.7439 0014667 119.3803 240.8886 14.96920820118274
SPACEBEE-6              
1 43818U 18099BN  21035.65116107  .00000373  00000-0  38067-4 0  9990
2 43818  97.6859 109.8827 0014463 120.6069 239.6581 14.96245734118365
SHIELDS 1               
1 43850U 18104B   21035.95680819  .00000691  00000-0  28736-4 0  9997
2 43850  85.0290  21.5928 0012726 300.6763  59.3224 15.21679589118824
STF-1                   
1 43852U 18104D   21035.96182591  .00001532  00000-0  65360-4 0  9993
2 43852  85.0330  22.2452 0012647 317.9144  42.1125 15.21953642118800
ZACUBE-2                
1 43907U 18111AH  21035.91594999  .00000651  00000-0  28770-4 0  9991
2 43907  97.2472 294.4106 0022683  45.1434  17.6404 15.24942808117435
LUME 1                  
1 43908U 18111AJ  21035.93640061  .00001403  00000-0  57420-4 0  9996
2 43908  97.2477 294.8098 0022061  44.0955 316.2038 15.25728364117465
AOBA VELOX-IV           
1 43940U 19003J   21035.78104622  .00003565  00000-0  13941-3 0  9994
2 43940  97.1989  84.8135 0024670 118.5615 241.8112 15.26194759114060
CATSAT-2                
1 44029U 98067PV  21035.50399556  .00066961  00000-0  30724-3 0  9999
2 44029  51.6378 209.0850 0003695 238.7969 121.2672 15.83019635115012
DELPHINI                
1 44030U 98067PW  21035.55415879  .00165486  21093-4  54283-3 0  9990
2 44030  51.6260 203.0842 0004933 254.5235 105.5226 15.90219916115064
UNITE                   
1 44031U 98067PX  21035.14632816  .00023462  00000-0  20366-3 0  9991
2 44031  51.6356 229.2340 0002940 207.5852 152.4989 15.68979275114683
CATSAT-1                
1 44033U 98067PZ  21033.73653462  .00081086  00000-0  37570-3 0  9997
2 44033  51.6375 218.2924 0003768 227.8615 132.2068 15.82736685114645
RAAVANA-1               
1 44329U 98067QE  21035.56884659  .00026661  00000-0  25748-3 0  9994
2 44329  51.6357 244.9065 0006028 154.6658 205.4634 15.66246155 93267
UGUISU                  
1 44330U 98067QF  21035.60045233  .00026507  00000-0  25824-3 0  9992
2 44330  51.6339 245.0572 0005978 153.8178 206.3121 15.66030805 93247
NEPALISAT-1             
1 44331U 98067QG  21035.94313551  .00020896  00000-0  20316-3 0  9997
2 44331  51.6334 242.8471 0005928 157.7222 202.4033 15.66240609 93316
SPOOQY-1                
1 44332U 98067QH  21035.65454944  .00026288  00000-0  25775-3 0  9993
2 44332  51.6344 244.6918 0005254 158.3600 201.7618 15.65879939 93227
SPACEBEE-9              
1 44370U 19037F   21035.58439445  .00019343  00000-0  34303-3 0  9997
2 44370  45.0025 252.9586 0011119 149.1114 211.0434 15.49937232 90523
SPACEBEE-8              
1 44371U 19037G   21034.61190633  .00077146  00000-0  77872-3 0  9997
2 44371  45.0013 238.0574 0011068 206.5857 153.4474 15.64398228 90614
IOD-1 GEMS              
1 44385U 98067QK  21035.59419977  .00104065  00000-0  56471-3 0  9998
2 44385  51.6336 233.8111 0003950 178.0202 182.0816 15.79204070 90871
MOVE-IIB                
1 44398U 19038N   21035.94129820  .00001927  00000-0  11175-3 0  9992
2 44398  97.5646   0.7276 0026186  48.6978 311.6501 15.13109370 87725
SONATE                  
1 44400U 19038Q   21035.92766659  .00000729  00000-0  45608-4 0  9999
2 44400  97.5701   0.6745 0026482  48.0564 312.2914 15.12302130 87706
LUCKY-7                 
1 44406U 19038W   21035.69958221  .00001098  00000-0  66164-4 0  9997
2 44406  97.5723   0.6380 0025664  48.4721 311.8705 15.12643845 87671
BEESAT 9                
1 44412U 19038AC  21035.34640957  .00001421  00000-0  84059-4 0  9993
2 44412  97.5710   0.2836 0023773  54.9806 305.3651 15.12865578 87320
JAISAT-1                
1 44419U 19038F   21035.62320447  .00001463  00000-0  85327-4 0  9995
2 44419  97.5711   1.0005 0022604  52.8780 307.4512 15.13350304 87703
SWIATOWID               
1 44426U 98067QL  21035.93273351  .00168934  00000-0  66832-3 0  9993
2 44426  51.6348 227.4177 0004200 200.7355 308.2210 15.85743643 91009
KRAKSAT                 
1 44427U 98067QM  21035.64742015  .00013873  00000-0  16400-3 0  9997
2 44427  51.6423 252.7988 0004357 118.7160 343.9809 15.61593994 90689
VCC A                   
1 44428U 98067QN  21035.68186603  .00025232  00000-0  25526-3 0  9998
2 44428  51.6367 247.2240 0003470 137.1304 222.9962 15.65125639 90763
ENTRYSAT                
1 44429U 98067QP  21035.64093016  .00035712  00000-0  31327-3 0  9990
2 44429  51.6326 243.1110 0003354 144.0767 216.0455 15.68479888 90819
VCC C                   
1 44430U 98067QQ  21035.63650098  .00060171  00000-0  41634-3 0  9999
2 44430  51.6327 237.8175 0003455 172.0951 188.0103 15.73913433 89711
VCC B                   
1 44431U 98067QR  21035.66710786  .00025740  00000-0  25817-3 0  9992
2 44431  51.6341 247.0704 0003553 136.4301 223.6975 15.65329869 90700
DUCHIFAT-3              
1 44854U 19089C   21035.74114124  .00000471  00000-0  44245-4 0  9992
2 44854  36.9646 165.3598 0006614 145.4385 214.6787 14.99315227 63170
EYESAT-NANO             
1 44877U 19092E   21035.77283213  .00001720  00000-0  89018-4 0  9995
2 44877  97.4557 221.3553 0012035 294.2637  65.7339 15.17511818 62812
ORBITAL FACTORY 2 (OF-2)
1 45113U 19071C   21035.94139541  .00002504  00000-0  84367-4 0  9992
2 45113  51.6433 319.5146 0012495 171.3151 188.8049 15.34721698 56811
M2 PATHFINDER           
1 45727U 20037E   21035.90559725  .00000176  00000-0  23250-4 0  9990
2 45727  97.7038 216.6516 0011809 246.1144 113.8872 14.91307563 32665
NETSAT-4                
1 46504U 20068U   21035.79763724 -.00000058  00000-0  19925-6 0  9997
2 46504  97.6774 333.8744 0008687 186.2377 173.8743 15.01959809 19321
NETSAT-3                
1 46505U 20068V   21035.26792424 -.00000054  00000-0  49979-6 0  9997
2 46505  97.6805 333.3369 0007913 185.2157 174.8989 15.01929069 19251
NETSAT-1                
1 46506U 20068W   21035.60449814  .00000086  00000-0  11188-4 0  9991
2 46506  97.6821 333.6570 0007420 179.6382 180.4834 15.01899109 19306
NETSAT-2                
1 46507U 20068X   21035.60599962  .00000093  00000-0  11709-4 0  9999
2 46507  97.6826 333.6589 0007552 179.7186 180.4034 15.01878224 19252
SPOC                    
1 46921U 98067RR  21035.90909324  .00005936  00000-0  10506-3 0  9997
2 46921  51.6421 275.7204 0001144 307.4303  52.6583 15.51811219 14266
BOBCAT-1                
1 46922U 98067RS  21035.95652808  .00008719  00000-0  14759-3 0  9991
2 46922  51.6429 275.2904 0000701 315.4282  44.6651 15.52401781 14234
NEUTRON-1               
1 46923U 98067RT  21035.91463408  .00006159  00000-0  10912-3 0  9997
2 46923  51.6422 275.7564 0001162 334.0225  26.0706 15.51706586 14292
1998-067RU              
1 46924U 98067RU  21035.92886677  .00015121  00000-0  24104-3 0  9993
2 46924  51.6415 275.1008 0001087  51.8429 308.2659 15.53448662 14278
DESCENT                 
1 46927U 98067RX  21035.91750912  .00006245  00000-0  11064-3 0  9995
2 46927  51.6421 275.7742 0001552   6.7831 353.3180 15.51679398 14205
